[{"OBJECT_NAME":"STARLINK-31031","OBJECT_ID":"2024-002G","EPOCH":"2026-03-09T18:07:51.563424","MEAN_MOTION":15.30199192,"ECCENTRICITY":8.669e-5,"INCLINATION":53.1592,"RA_OF_ASC_NODE":229.7606,"ARG_OF_PERICENTER":72.8998,"MEAN_ANOMALY":287.2098,"EPHEMERIS_TYPE":0,"CLASSIFICATION_TYPE":"U","NORAD_CAT_ID":58711,"ELEMENT_SET_NO":999,"REV_AT_EPOCH":12202,"BSTAR":6.3620048e-5,"MEAN_MOTION_DOT":1.526e-5,"MEAN_MOTION_DDOT":0},{"OBJECT_NAME":"CZ-4C R\/B","OBJECT_ID":"2022-069B","EPOCH":"2026-03-09T22:08:25.149120","MEAN_MOTION":15.31915595,"ECCENTRICITY":0.00471341,"INCLINATION":97.9961,"RA_OF_ASC_NODE":42.6953,"ARG_OF_PERICENTER":87.2467,"MEAN_ANOMALY":273.4166,"EPHEMERIS_TYPE":0,"CLASSIFICATION_TYPE":"U","NORAD_CAT_ID":52913,"ELEMENT_SET_NO":999,"REV_AT_EPOCH":20482,"BSTAR":0.00043675127,"MEAN_MOTION_DOT":0.00013855,"MEAN_MOTION_DDOT":0}]
